{
  "type": "FeatureCollection",
  "features": [
    {
      "type": "Feature",
      "properties": {
        "norad_id": 2807,
        "name": "OPS 7218 (TRANSIT 16)",
        "group": "nnss",
        "lat": 86.95967617450395,
        "lon": 0.1351130900565348,
        "alt_km": 1047.0490788119032,
        "timestamp": "2025-12-14T05:42:18.728288+00:00",
        "meta_object_name": "OPS 7218 (TRANSIT 16)",
        "meta_object_id": "1967-048A",
        "meta_epoch": "2025-12-13T13:51:00.377280",
        "meta_mean_motion": 13.50722326,
        "meta_eccentricity": 0.00219939,
        "meta_inclination": 89.6732,
        "meta_ra_of_asc_node": 353.9884,
        "meta_arg_of_pericenter": 111.8379,
        "meta_mean_anomaly": 4.7793,
        "meta_ephemeris_type": 0,
        "meta_classification_type": "U",
        "meta_norad_cat_id": 2807,
        "meta_element_set_no": 999,
        "meta_rev_at_epoch": 88287,
        "meta_bstar": 0.00018562902,
        "meta_mean_motion_dot": 1.3e-06,
        "meta_mean_motion_ddot": 0,
        "tle_line1": "1 02807U 67048A   25347.57708770  .00000130  00000+0  18563-3 0  9993",
        "tle_line2": "2 02807  89.6732 353.9884 0021993 111.8379   4.7793 13.50722326882872"
      },
      "geometry": {
        "type": "Point",
        "coordinates": [
          0.1351130900565348,
          86.95967617450395
        ]
      }
    },
    {
      "type": "Feature",
      "properties": {
        "norad_id": 2965,
        "name": "OPS 4947 (TRANSIT 17)",
        "group": "nnss",
        "lat": 14.085206192120788,
        "lon": -155.86693914444785,
        "alt_km": 1045.468403451282,
        "timestamp": "2025-12-14T05:42:18.728310+00:00",
        "meta_object_name": "OPS 4947 (TRANSIT 17)",
        "meta_object_id": "1967-092A",
        "meta_epoch": "2025-12-13T17:05:15.669024",
        "meta_mean_motion": 13.53453686,
        "meta_eccentricity": 0.00462407,
        "meta_inclination": 89.2495,
        "meta_ra_of_asc_node": 24.3615,
        "meta_arg_of_pericenter": 231.5837,
        "meta_mean_anomaly": 254.6409,
        "meta_ephemeris_type": 0,
        "meta_classification_type": "U",
        "meta_norad_cat_id": 2965,
        "meta_element_set_no": 999,
        "meta_rev_at_epoch": 87110,
        "meta_bstar": 0.00022842145,
        "meta_mean_motion_dot": 1.66e-06,
        "meta_mean_motion_ddot": 0,
        "tle_line1": "1 02965U 67092A   25347.71198691  .00000166  00000+0  22842-3 0  9992",
        "tle_line2": "2 02965  89.2495  24.3615 0046240 231.5837 254.6409 13.53453686871108"
      },
      "geometry": {
        "type": "Point",
        "coordinates": [
          -155.86693914444785,
          14.085206192120788
        ]
      }
    },
    {
      "type": "Feature",
      "properties": {
        "norad_id": 3133,
        "name": "OPS 7034 (TRANSIT 18)",
        "group": "nnss",
        "lat": -54.24039907776108,
        "lon": -86.3181338038429,
        "alt_km": 1116.2306021484283,
        "timestamp": "2025-12-14T05:42:18.728324+00:00",
        "meta_object_name": "OPS 7034 (TRANSIT 18)",
        "meta_object_id": "1968-012A",
        "meta_epoch": "2025-12-13T13:03:55.967328",
        "meta_mean_motion": 13.51565835,
        "meta_eccentricity": 0.00739283,
        "meta_inclination": 90.028,
        "meta_ra_of_asc_node": 273.641,
        "meta_arg_of_pericenter": 166.7988,
        "meta_mean_anomaly": 7.0693,
        "meta_ephemeris_type": 0,
        "meta_classification_type": "U",
        "meta_norad_cat_id": 3133,
        "meta_element_set_no": 999,
        "meta_rev_at_epoch": 56929,
        "meta_bstar": 0.00020755671,
        "meta_mean_motion_dot": 1.47e-06,
        "meta_mean_motion_ddot": 0,
        "tle_line1": "1 03133U 68012A   25347.54439777  .00000147  00000+0  20756-3 0  9998",
        "tle_line2": "2 03133  90.0280 273.6410 0073928 166.7988   7.0693 13.51565835569296"
      },
      "geometry": {
        "type": "Point",
        "coordinates": [
          -86.3181338038429,
          -54.24039907776108
        ]
      }
    },
    {
      "type": "Feature",
      "properties": {
        "norad_id": 4507,
        "name": "NNSS 19 (TRANSIT 19)",
        "group": "nnss",
        "lat": -85.06854908956132,
        "lon": -125.40246401505746,
        "alt_km": 951.6279872477417,
        "timestamp": "2025-12-14T05:42:18.728337+00:00",
        "meta_object_name": "NNSS 19 (TRANSIT 19)",
        "meta_object_id": "1970-067A",
        "meta_epoch": "2025-12-13T15:53:50.989344",
        "meta_mean_motion": 13.51315319,
        "meta_eccentricity": 0.01704898,
        "meta_inclination": 90.0054,
        "meta_ra_of_asc_node": 234.5346,
        "meta_arg_of_pericenter": 290.6842,
        "meta_mean_anomaly": 67.6105,
        "meta_ephemeris_type": 0,
        "meta_classification_type": "U",
        "meta_norad_cat_id": 4507,
        "meta_element_set_no": 999,
        "meta_rev_at_epoch": 72234,
        "meta_bstar": 0.00019291757,
        "meta_mean_motion_dot": 1.45e-06,
        "meta_mean_motion_ddot": 0,
        "tle_line1": "1 04507U 70067A   25347.66239571  .00000145  00000+0  19292-3 0  9991",
        "tle_line2": "2 04507  90.0054 234.5346 0170489 290.6842  67.6105 13.51315319722348"
      },
      "geometry": {
        "type": "Point",
        "coordinates": [
          -125.40246401505746,
          -85.06854908956132
        ]
      }
    },
    {
      "type": "Feature",
      "properties": {
        "norad_id": 6909,
        "name": "NNSS 20 (TRANSIT 20)",
        "group": "nnss",
        "lat": 82.87013528615157,
        "lon": 73.88133932820855,
        "alt_km": 880.6617416981362,
        "timestamp": "2025-12-14T05:42:18.728348+00:00",
        "meta_object_name": "NNSS 20 (TRANSIT 20)",
        "meta_object_id": "1973-081A",
        "meta_epoch": "2025-12-13T16:59:16.199232",
        "meta_mean_motion": 13.714347,
        "meta_eccentricity": 0.01566147,
        "meta_inclination": 89.8562,
        "meta_ra_of_asc_node": 255.0397,
        "meta_arg_of_pericenter": 75.4523,
        "meta_mean_anomaly": 286.3953,
        "meta_ephemeris_type": 0,
        "meta_classification_type": "U",
        "meta_norad_cat_id": 6909,
        "meta_element_set_no": 999,
        "meta_rev_at_epoch": 80374,
        "meta_bstar": 0.00030466094,
        "meta_mean_motion_dot": 3.11e-06,
        "meta_mean_motion_ddot": 0,
        "tle_line1": "1 06909U 73081A   25347.70782638  .00000311  00000+0  30466-3 0  9991",
        "tle_line2": "2 06909  89.8562 255.0397 0156614  75.4523 286.3953 13.71434700803742"
      },
      "geometry": {
        "type": "Point",
        "coordinates": [
          73.88133932820855,
          82.87013528615157
        ]
      }
    },
    {
      "type": "Feature",
      "properties": {
        "norad_id": 10457,
        "name": "TRANSAT",
        "group": "nnss",
        "lat": -87.89395645231035,
        "lon": -91.83580136909913,
        "alt_km": 1081.1999076879274,
        "timestamp": "2025-12-14T05:42:18.728360+00:00",
        "meta_object_name": "TRANSAT",
        "meta_object_id": "1977-106A",
        "meta_epoch": "2025-12-13T16:32:16.523232",
        "meta_mean_motion": 13.48943821,
        "meta_eccentricity": 0.00254877,
        "meta_inclination": 89.6481,
        "meta_ra_of_asc_node": 78.5634,
        "meta_arg_of_pericenter": 186.7111,
        "meta_mean_anomaly": 298.2128,
        "meta_ephemeris_type": 0,
        "meta_classification_type": "U",
        "meta_norad_cat_id": 10457,
        "meta_element_set_no": 999,
        "meta_rev_at_epoch": 36756,
        "meta_bstar": 0.00015552887,
        "meta_mean_motion_dot": 1.08e-06,
        "meta_mean_motion_ddot": 0,
        "tle_line1": "1 10457U 77106A   25347.68908013  .00000108  00000+0  15553-3 0  9994",
        "tle_line2": "2 10457  89.6481  78.5634 0025487 186.7111 298.2128 13.48943821367561"
      },
      "geometry": {
        "type": "Point",
        "coordinates": [
          -91.83580136909913,
          -87.89395645231035
        ]
      }
    },
    {
      "type": "Feature",
      "properties": {
        "norad_id": 12458,
        "name": "NOVA 1",
        "group": "nnss",
        "lat": 30.68097587134858,
        "lon": 91.45139967531745,
        "alt_km": 1166.307980635852,
        "timestamp": "2025-12-14T05:42:18.728370+00:00",
        "meta_object_name": "NOVA 1",
        "meta_object_id": "1981-044A",
        "meta_epoch": "2025-12-13T13:16:17.111712",
        "meta_mean_motion": 13.2327856,
        "meta_eccentricity": 0.00158856,
        "meta_inclination": 89.8524,
        "meta_ra_of_asc_node": 91.3735,
        "meta_arg_of_pericenter": 101.9777,
        "meta_mean_anomaly": 268.8845,
        "meta_ephemeris_type": 0,
        "meta_classification_type": "U",
        "meta_norad_cat_id": 12458,
        "meta_element_set_no": 999,
        "meta_rev_at_epoch": 15197,
        "meta_bstar": 0.00017841208,
        "meta_mean_motion_dot": 8.5e-07,
        "meta_mean_motion_ddot": 0,
        "tle_line1": "1 12458U 81044A   25347.55297583  .00000085  00000+0  17841-3 0  9998",
        "tle_line2": "2 12458  89.8524  91.3735 0015885 101.9777 268.8845 13.23278560151976"
      },
      "geometry": {
        "type": "Point",
        "coordinates": [
          91.45139967531745,
          30.68097587134858
        ]
      }
    }
  ]
}